KUIPER-00152            
1 65772U 25217L   26008.66671296 -.00224984  00000+0 -18438-1 0  9998
2 65772  51.9036 297.1277 0003150 159.3668 359.8066 15.00025451  4537
KUIPER-00153            
1 65773U 25217M   26008.21157700  .00015506  00000+0  90627-3 0  9997
2 65773  51.8783 309.0843 0013380 115.4291 244.8071 15.11980368 15944
KUIPER-00155            
1 65774U 25217N   26008.66671296 -.00963759  00000+0 -44940-1 0  9997
2 65774  51.8771 295.1611 0006590 121.8582 244.4863 15.22071347  5684
KUIPER-00156            
1 65775U 25217P   26008.66671296 -.00923779  00000+0 -47541-1 0  9996
2 65775  51.8832 294.5061 0002949 179.7844 107.0090 15.18631839  4051
KUIPER-00158            
1 65776U 25217Q   26008.24125095 -.00000912  00000+0 -90685-4 0  9997
2 65776  51.9008 312.8933 0000965  90.9249 269.1824 14.79917751 15894
KUIPER-00163            
1 65777U 25217R   26008.57623326 -.00003516  00000+0 -43226-3 0  9995
2 65777  51.8979 313.9164 0000447  81.1471 278.9542 14.79951024 15901
KUIPER-00165            
1 65778U 25217S   26008.66671296 -.00017993  00000+0 -20507-2 0  9995
2 65778  51.8993 301.2528 0007230 150.8353 326.1904 14.85315944  4348
KUIPER-00166            
1 65779U 25217T   26008.66671296 -.00910238  00000+0 -34770-1 0  9996
2 65779  51.8741 294.0115 0004207 119.9228  68.3479 15.28973413  4654
